SITRO-AIS 8 (ANOKHIN)   
1 57193U 23091AD  26168.15252862  .00011202  00000+0  36271-3 0  9991
2 57193  97.5055 233.6399 0011802 100.1349 260.1224 15.32135683164446
SITRO-AIS 7 (FARTUSHNIY)
1 57194U 23091AE  26168.18296272  .00008100  00000+0  32073-3 0  9997
2 57194  97.5063 231.0265 0012952 107.3755 252.8900 15.25622957164274
AVION KALUGA 650        
1 57195U 23091AF  26168.16219079  .00004555  00000+0  21216-3 0  9993
2 57195  97.5087 227.7387 0011899 109.3836 250.8686 15.20352498164026
HORS 2                  
1 57196U 23091AG  26168.16421448  .00009843  00000+0  32176-3 0  9991
2 57196  97.5088 235.1934 0009374  87.9135 272.3180 15.31891644164523
A-SEANSAT-PG1           
1 57197U 23091AH  26168.14139590  .00014195  00000+0  39436-3 0  9996
2 57197  97.5080 237.7217 0008294  85.2671 274.9520 15.36958393164700
SITRO-AIS 10 (BURDAEV)  
1 57199U 23091AK  26168.18422186  .00016062  00000+0  42271-3 0  9994
2 57199  97.5081 238.7263 0007503  80.5746 279.6347 15.38612377164764
SITRO-AIS 9 (SHCHUKIN)  
1 57201U 23091AM  26168.14556439  .00015530  00000+0  41537-3 0  9996
2 57201  97.5079 238.4167 0007783  80.6027 279.6097 15.38118895164744
UTMN 2 (RS27S)          
1 57203U 23091AP  26168.12612308  .00011830  00000+0  38419-3 0  9998
2 57203  97.5087 235.3462 0009272  84.0552 276.1746 15.32052698164537
SITRO-AIS 12 (SMIRENNIY)
1 57204U 23091AQ  26168.13619375  .00015659  00000+0  41488-3 0  9994
2 57204  97.5092 238.8741 0007314  75.8122 284.3935 15.38412134164765
SITRO-AIS 11 (SHEFFER)  
1 57208U 23091AU  26168.14962252  .00015741  00000+0  41136-3 0  9996
2 57208  97.5090 239.1345 0007182  75.6067 284.5974 15.38836293164783
H2SAT (HEINRICH HERTZ)  
1 57213U 23093A   26165.68239000  .00000009  00000+0  00000+0 0  9990
2 57213   0.0576 110.9536 0000860  82.8758 315.5159  1.00272092 10895
KUZGTU 1 (RS47S)        
1 57217U 23091AV  26168.16492491  .00009323  00000+0  32430-3 0  9997
2 57217  97.5062 232.6447 0012298  98.0689 262.1947 15.29861977164370
QIANKUN-1               
1 57422U 23103B   26166.36556735  .00020233  18381-5  23233-4 0  9993
2 57422  96.1468 211.3446 0029378 145.9035 214.4147 16.08420909167009
FENGYUN 3F              
1 57490U 23111A   26168.18561440  .00000032  00000+0  35705-4 0  9993
2 57490  98.6836 238.1943 0001592  93.5463 266.5896 14.19939099148867
HJ-2F                   
1 57519U 23116A   26168.18673034  .00005871  00000+0  25742-3 0  9998
2 57519  97.3838 173.4052 0009865  52.1967 308.0161 15.22320078158752
XRISM                   
1 57800U 23137A   26167.99267058  .00004236  00000+0  23198-3 0  9994
2 57800  31.0033   0.8620 0007958 321.8772  38.1304 15.12465505152839
METEOR-M2 4             
1 59051U 24039A   26168.18343336 -.00000002  00000+0  18952-4 0  9993
2 59051  98.7010 127.4815 0007293 160.9601 199.1851 14.22429507119268
GRBBETA                 
1 60237U 24128C   26167.68909538  .00002596  00000+0  18568-3 0  9997
2 60237  61.9884 218.0139 0040716 134.5575 225.8855 15.06636880106193
TRANSPORTER-11 OBJECT A 
1 60468U 24149A   26167.95766476  .00007385  00000+0  23484-3 0  9992
2 60468  97.3734 247.8880 0002806 194.2349 165.8814 15.32903427102028
WARATAH SEED-1          
1 60469U 24149B   26168.17624229  .00010493  00000+0  30211-3 0  9997
2 60469  97.3693 248.7506 0001545 178.0751 182.0499 15.35944956102119
PHISAT 2                
1 60470U 24149C   26168.11264972  .00006833  00000+0  23023-3 0  9994
2 60470  97.3758 247.3290 0001056 173.2275 186.8980 15.31066121101989
LEMUR-2-TOMATOKECHUP    
1 60471U 24149D   26167.97704351  .00009737  00000+0  27977-3 0  9996
2 60471  97.3803 250.0230 0001440 175.8194 184.3062 15.36030247102138
CONNECTA IOT-1          
1 60472U 24149E   26167.70176873  .00003470  00000+0  14818-3 0  9998
2 60472  97.3760 244.0012 0000310 295.9242  64.1963 15.23537525101721
LOPEN                   
1 60473U 24149F   26167.74041731  .00012479  00000+0  31810-3 0  9997
2 60473  97.3782 251.1044 0000785 183.8409 176.2831 15.39677035102195
ROCK                    
1 60474U 24149G   26167.98695269  .00013002  00000+0  33129-3 0  9993
2 60474  97.3779 251.3688 0001097 190.8478 169.2745 15.39678371102234
CONNECTA IOT-3          
1 60475U 24149H   26167.72314795  .00003312  00000+0  14152-3 0  9996
2 60475  97.3735 243.7754 0001359 255.6521 104.4565 15.23549952101736
QUBE                    
1 60476U 24149J   26167.97943318  .00020327  00000+0  40144-3 0  9998
2 60476  97.3783 254.4087 0001964 194.0191 166.1005 15.47181327102435
WREN-1                  
1 60478U 24149L   26167.74485725  .00016811  00000+0  40208-3 0  9992
2 60478  97.3769 251.8523 0003216 250.4283 109.6617 15.41541460102251
TOMORROW-S1             
1 60479U 24149M   26167.94052182  .00006286  00000+0  20144-3 0  9994
2 60479  97.3751 248.4133 0001517 213.7931 146.3215 15.32718747102050
